[{"OBJECT_NAME":"SL-14 R/B","OBJECT_ID":"1986-006B","EPOCH":"2026-03-16T20:32:40.870176","MEAN_MOTION":14.8682556,"ECCENTRICITY":0.0075154,"INCLINATION":82.5237,"RA_OF_ASC_NODE":252.9903,"ARG_OF_PERICENTER":248.5821,"MEAN_ANOMALY":110.7368,"EPHEMERIS_TYPE":0,"CLASSIFICATION_TYPE":"U","NORAD_CAT_ID":16496,"ELEMENT_SET_NO":999,"REV_AT_EPOCH":15027,"BSTAR":7.0471e-5,"MEAN_MOTION_DOT":6.87e-6,"MEAN_MOTION_DDOT":0},{"OBJECT_NAME":"COSMOS 1743","OBJECT_ID":"1986-034A","EPOCH":"2026-03-16T06:05:49.132896","MEAN_MOTION":15.59071129,"ECCENTRICITY":0.00018276,"INCLINATION":82.5285,"RA_OF_ASC_NODE":66.9375,"ARG_OF_PERICENTER":230.639,"MEAN_ANOMALY":129.4704,"EPHEMERIS_TYPE":0,"CLASSIFICATION_TYPE":"U","NORAD_CAT_ID":16719,"ELEMENT_SET_NO":999,"REV_AT_EPOCH":18127,"BSTAR":0.00048277975,"MEAN_MOTION_DOT":0.00037781,"MEAN_MOTION_DDOT":0},{"OBJECT_NAME":"SL-14 R/B","OBJECT_ID":"1986-046B","EPOCH":"2026-03-16T17:52:37.859232","MEAN_MOTION":14.85597408,"ECCENTRICITY":0.0022477,"INCLINATION":82.4784,"RA_OF_ASC_NODE":73.5131,"ARG_OF_PERICENTER":201.0661,"MEAN_ANOMALY":158.9632,"EPHEMERIS_TYPE":0,"CLASSIFICATION_TYPE":"U","NORAD_CAT_ID":16792,"ELEMENT_SET_NO":999,"REV_AT_EPOCH":12745,"BSTAR":4.9981e-5,"MEAN_MOTION_DOT":4.58e-6,"MEAN_MOTION_DDOT":0},{"OBJECT_NAME":"SL-14 R/B","OBJECT_ID":"1986-055B","EPOCH":"2026-03-16T21:30:00.634752","MEAN_MOTION":14.85649079,"ECCENTRICITY":0.0017653,"INCLINATION":82.5186,"RA_OF_ASC_NODE":119.9001,"ARG_OF_PERICENTER":311.5573,"MEAN_ANOMALY":221.6654,"EPHEMERIS_TYPE":0,"CLASSIFICATION_TYPE":"U","NORAD_CAT_ID":16882,"ELEMENT_SET_NO":999,"REV_AT_EPOCH":12043,"BSTAR":4.3944e-5,"MEAN_MOTION_DOT":4.06e-6,"MEAN_MOTION_DDOT":0},{"OBJECT_NAME":"AJISAI (EGS)","OBJECT_ID":"1986-061A","EPOCH":"2026-03-16T20:42:43.949952","MEAN_MOTION":12.44515702,"ECCENTRICITY":0.0011293,"INCLINATION":50.0087,"RA_OF_ASC_NODE":71.2885,"ARG_OF_PERICENTER":305.4881,"MEAN_ANOMALY":124.7367,"EPHEMERIS_TYPE":0,"CLASSIFICATION_TYPE":"U","NORAD_CAT_ID":16908,"ELEMENT_SET_NO":999,"REV_AT_EPOCH":46889,"BSTAR":5.0466e-5,"MEAN_MOTION_DOT":-9.0e-7,"MEAN_MOTION_DDOT":0},{"OBJECT_NAME":"SL-14 R/B","OBJECT_ID":"1987-024B","EPOCH":"2026-03-16T02:27:27.950976","MEAN_MOTION":14.86138504,"ECCENTRICITY":0.00168844,"INCLINATION":82.5243,"RA_OF_ASC_NODE":86.7345,"ARG_OF_PERICENTER":236.8486,"MEAN_ANOMALY":123.1111,"EPHEMERIS_TYPE":0,"CLASSIFICATION_TYPE":"U","NORAD_CAT_ID":17567,"ELEMENT_SET_NO":999,"REV_AT_EPOCH":8908,"BSTAR":5.3489665e-5,"MEAN_MOTION_DOT":4.94e-6,"MEAN_MOTION_DDOT":0},{"OBJECT_NAME":"COSMOS 1833","OBJECT_ID":"1987-027A","EPOCH":"2026-03-16T20:50:34.602720","MEAN_MOTION":14.13052659,"ECCENTRICITY":0.0023904,"INCLINATION":70.9206,"RA_OF_ASC_NODE":310.9314,"ARG_OF_PERICENTER":204.291,"MEAN_ANOMALY":155.7086,"EPHEMERIS_TYPE":0,"CLASSIFICATION_TYPE":"U","NORAD_CAT_ID":17589,"ELEMENT_SET_NO":999,"REV_AT_EPOCH":1133,"BSTAR":-8.7049e-5,"MEAN_MOTION_DOT":-2.11e-6,"MEAN_MOTION_DDOT":0},{"OBJECT_NAME":"SL-16 R/B","OBJECT_ID":"1987-027B","EPOCH":"2026-03-16T18:01:03.186912","MEAN_MOTION":14.17166729,"ECCENTRICITY":0.0003142,"INCLINATION":70.9993,"RA_OF_ASC_NODE":261.614,"ARG_OF_PERICENTER":127.0539,"MEAN_ANOMALY":233.0873,"EPHEMERIS_TYPE":0,"CLASSIFICATION_TYPE":"U","NORAD_CAT_ID":17590,"ELEMENT_SET_NO":999,"REV_AT_EPOCH":1634,"BSTAR":1.9726e-5,"MEAN_MOTION_DOT":-8.0e-8,"MEAN_MOTION_DDOT":0},{"OBJECT_NAME":"SL-14 R/B","OBJECT_ID":"1987-038B","EPOCH":"2026-03-16T13:44:00.939840","MEAN_MOTION":14.85375454,"ECCENTRICITY":0.002023,"INCLINATION":82.499,"RA_OF_ASC_NODE":290.3231,"ARG_OF_PERICENTER":138.5249,"MEAN_ANOMALY":221.7507,"EPHEMERIS_TYPE":0,"CLASSIFICATION_TYPE":"U","NORAD_CAT_ID":17912,"ELEMENT_SET_NO":999,"REV_AT_EPOCH":8025,"BSTAR":4.4614e-5,"MEAN_MOTION_DOT":4.1e-6,"MEAN_MOTION_DDOT":0},{"OBJECT_NAME":"COSMOS 1844","OBJECT_ID":"1987-041A","EPOCH":"2026-03-16T19:48:25.165728","MEAN_MOTION":14.1455109,"ECCENTRICITY":0.0030383,"INCLINATION":70.9006,"RA_OF_ASC_NODE":19.1247,"ARG_OF_PERICENTER":7.4353,"MEAN_ANOMALY":352.7213,"EPHEMERIS_TYPE":0,"CLASSIFICATION_TYPE":"U","NORAD_CAT_ID":17973,"ELEMENT_SET_NO":999,"REV_AT_EPOCH":459,"BSTAR":-9.5499e-6,"MEAN_MOTION_DOT":-6.7e-7,"MEAN_MOTION_DDOT":0},{"OBJECT_NAME":"SL-14 R/B","OBJECT_ID":"1987-055B","EPOCH":"2026-03-16T16:22:58.621152","MEAN_MOTION":14.85637384,"ECCENTRICITY":0.0020505,"INCLINATION":82.5027,"RA_OF_ASC_NODE":342.4425,"ARG_OF_PERICENTER":355.0814,"MEAN_ANOMALY":5.0197,"EPHEMERIS_TYPE":0,"CLASSIFICATION_TYPE":"U","NORAD_CAT_ID":18153,"ELEMENT_SET_NO":999,"REV_AT_EPOCH":7097,"BSTAR":5.1332e-5,"MEAN_MOTION_DOT":4.7e-6,"MEAN_MOTION_DDOT":0},{"OBJECT_NAME":"COSMOS 1867","OBJECT_ID":"1987-060A","EPOCH":"2026-03-16T20:19:05.616192","MEAN_MOTION":14.31504103,"ECCENTRICITY":0.0014596,"INCLINATION":65.01,"RA_OF_ASC_NODE":286.6623,"ARG_OF_PERICENTER":279.0761,"MEAN_ANOMALY":80.8671,"EPHEMERIS_TYPE":0,"CLASSIFICATION_TYPE":"U","NORAD_CAT_ID":18187,"ELEMENT_SET_NO":999,"REV_AT_EPOCH":2096,"BSTAR":2.9278e-5,"MEAN_MOTION_DOT":-2.2e-7,"MEAN_MOTION_DDOT":0},{"OBJECT_NAME":"SL-14 R/B","OBJECT_ID":"1988-001B","EPOCH":"2026-03-16T17:53:56.520384","MEAN_MOTION":14.85536432,"ECCENTRICITY":0.0017303,"INCLINATION":82.516,"RA_OF_ASC_NODE":188.7253,"ARG_OF_PERICENTER":210.9924,"MEAN_ANOMALY":149.0273,"EPHEMERIS_TYPE":0,"CLASSIFICATION_TYPE":"U","NORAD_CAT_ID":18749,"ELEMENT_SET_NO":999,"REV_AT_EPOCH":4307,"BSTAR":5.5124e-5,"MEAN_MOTION_DOT":5.01e-6,"MEAN_MOTION_DDOT":0},{"OBJECT_NAME":"COSMOS 1933","OBJECT_ID":"1988-020A","EPOCH":"2026-03-16T20:14:17.371104","MEAN_MOTION":15.18054457,"ECCENTRICITY":0.0004433,"INCLINATION":82.5103,"RA_OF_ASC_NODE":243.8323,"ARG_OF_PERICENTER":158.9052,"MEAN_ANOMALY":201.2366,"EPHEMERIS_TYPE":0,"CLASSIFICATION_TYPE":"U","NORAD_CAT_ID":18958,"ELEMENT_SET_NO":999,"REV_AT_EPOCH":5131,"BSTAR":0.00017317,"MEAN_MOTION_DOT":3.556e-5,"MEAN_MOTION_DDOT":0},{"OBJECT_NAME":"SL-3 R/B","OBJECT_ID":"1988-032B","EPOCH":"2026-03-16T20:13:18.426432","MEAN_MOTION":15.19994289,"ECCENTRICITY":0.0025027,"INCLINATION":97.5195,"RA_OF_ASC_NODE":59.0685,"ARG_OF_PERICENTER":205.3358,"MEAN_ANOMALY":154.6651,"EPHEMERIS_TYPE":0,"CLASSIFICATION_TYPE":"U","NORAD_CAT_ID":19046,"ELEMENT_SET_NO":999,"REV_AT_EPOCH":5319,"BSTAR":0.00021088,"MEAN_MOTION_DOT":4.507e-5,"MEAN_MOTION_DDOT":0},{"OBJECT_NAME":"SL-16 R/B","OBJECT_ID":"1988-039B","EPOCH":"2026-03-16T21:15:19.745280","MEAN_MOTION":14.19617358,"ECCENTRICITY":0.0023137,"INCLINATION":71.0145,"RA_OF_ASC_NODE":53.3302,"ARG_OF_PERICENTER":323.9193,"MEAN_ANOMALY":36.037,"EPHEMERIS_TYPE":0,"CLASSIFICATION_TYPE":"U","NORAD_CAT_ID":19120,"ELEMENT_SET_NO":999,"REV_AT_EPOCH":95940,"BSTAR":6.9393e-5,"MEAN_MOTION_DOT":9.9e-7,"MEAN_MOTION_DDOT":0},{"OBJECT_NAME":"COSMOS 1953","OBJECT_ID":"1988-050A","EPOCH":"2026-03-16T04:07:26.558688","MEAN_MOTION":15.28641799,"ECCENTRICITY":0.00126462,"INCLINATION":82.5102,"RA_OF_ASC_NODE":151.7282,"ARG_OF_PERICENTER":102.1084,"MEAN_ANOMALY":258.1573,"EPHEMERIS_TYPE":0,"CLASSIFICATION_TYPE":"U","NORAD_CAT_ID":19210,"ELEMENT_SET_NO":999,"REV_AT_EPOCH":3877,"BSTAR":0.00026127178,"MEAN_MOTION_DOT":7.326e-5,"MEAN_MOTION_DDOT":0}]
